STARLINK-31868          
1 59783U 24093B   24162.00001157  .00123382  00000+0  10044-2 0  9998
2 59783  42.9984 240.6404 0002964 252.9691 255.5469 15.69522008  4812
STARLINK-31848          
1 59784U 24093C   24162.25001157 -.01729358  00000+0 -26309-1 0  9994
2 59784  42.9990 239.3132 0001315 272.7249 138.1975 15.56791736  4855
STARLINK-31890          
1 59785U 24093D   24162.25001157 -.01730278  00000+0 -26326-1 0  9997
2 59785  42.9989 239.3079 0001484 271.6426 141.2179 15.56788812  4836
STARLINK-31862          
1 59786U 24093E   24162.25001157 -.01727648  00000+0 -26290-1 0  9995
2 59786  42.9990 239.2988 0001530 279.2405 137.4981 15.56779535  4706
STARLINK-31870          
1 59787U 24093F   24162.25001157 -.01729829  00000+0 -26324-1 0  9997
2 59787  42.9989 239.3035 0001360 273.8941 140.9069 15.56784270  4804
STARLINK-31888          
1 59788U 24093G   24162.25001157 -.01731696  00000+0 -26367-1 0  9990
2 59788  42.9990 239.2888 0001237 275.9195 144.6951 15.56774113  4805
STARLINK-31863          
1 59789U 24093H   24162.25001157 -.01731636  00000+0 -26362-1 0  9990
2 59789  42.9990 239.2940 0001314 274.4535 144.2256 15.56777421  4857
STARLINK-31873          
1 59790U 24093J   24162.25001157 -.01732860  00000+0 -26391-1 0  9994
2 59790  42.9989 239.2839 0001171 273.8593 148.6978 15.56770522  4856
STARLINK-31865          
1 59791U 24093K   24161.91667824 -.01768529  00000+0 -25738-1 0  9991
2 59791  42.9992 241.2478 0001298 270.4315  82.9577 15.58033601  4844
STARLINK-31893          
1 59792U 24093L   24162.25001157 -.01731757  00000+0 -26380-1 0  9998
2 59792  42.9990 239.2740 0001242 276.9511 149.4839 15.56762039  4864
STARLINK-31901          
1 59793U 24093M   24162.25001157 -.01730078  00000+0 -26356-1 0  9997
2 59793  42.9990 239.2686 0001273 283.7270 144.6473 15.56757110  4850
STARLINK-31823          
1 59794U 24093N   24162.25001157 -.01735583  00000+0 -26449-1 0  9997
2 59794  42.9991 239.2640 0001348 269.5053 160.8065 15.56757283  4854
STARLINK-31916          
1 59795U 24093P   24162.25001157 -.01732644  00000+0 -26407-1 0  9997
2 59795  42.9990 239.2590 0001151 277.3920 154.8601 15.56750910  4859
STARLINK-31907          
1 59797U 24093R   24162.25001157 -.01732925  00000+0 -26415-1 0  9990
2 59797  42.9990 239.2536 0001156 274.7419 159.4479 15.56747650  4806
STARLINK-31687          
1 59798U 24093S   24162.25001157 -.01733200  00000+0 -26451-1 0  9998
2 59798  42.9990 239.2137 0001140 278.6266 171.0767 15.56716348  4855
STARLINK-31810          
1 59799U 24093T   24162.25001157 -.01732877  00000+0 -26434-1 0  9999
2 59799  42.9990 239.2289 0001127 276.2645 167.6217 15.56727984  4853
STARLINK-31812          
1 59800U 24093U   24162.25001157 -.01732621  00000+0 -26418-1 0  9991
2 59800  42.9991 239.2440 0001165 275.5715 162.4984 15.56739340  4918
STARLINK-31815          
1 59801U 24093V   24162.25001157 -.01732989  00000+0 -26428-1 0  9990
2 59801  42.9991 239.2390 0001137 276.0935 163.9145 15.56735852  4854
STARLINK-31814          
1 59802U 24093W   24162.25001157  .00100173  00000+0  10779-2 0  9995
2 59802  42.9983 239.1949 0001748 263.0423 195.1700 15.62678768  4854
STARLINK-31794          
1 59803U 24093X   24162.25001157 -.01731724  00000+0 -26423-1 0  9993
2 59803  42.9991 239.2191 0001128 282.8003 164.9648 15.56719256  4912
STARLINK-31824          
1 59804U 24093Y   24161.91667824 -.01766182  00000+0 -25742-1 0  9994
2 59804  42.9992 241.1933 0001417 277.4889  97.2837 15.57989272  4795
2024-094A               
1 59805U 24094A   24162.19236167  .00017875  00000+0  75211-3 0  9992
2 59805  97.4716 233.0068 0008913 201.3852 158.7014 15.23408345  3203
2024-094B               
1 59806U 24094B   24162.17763712  .00018500  00000+0  74656-3 0  9990
2 59806  97.4709 233.0251 0011726 208.4773 151.5825 15.24782809  3196
2024-094C               
1 59807U 24094C   24162.18081787  .00018433  00000+0  74903-3 0  9997
2 59807  97.4725 233.0249 0011948 203.1769 156.8931 15.24548785  3194
2024-094D               
1 59808U 24094D   24162.19823766  .00017400  00000+0  75693-3 0  9990
2 59808  97.4709 232.9973 0007520 241.8398 118.2078 15.22291935  3191
2024-092K               
1 59809U 24092K   24162.16786406  .00010245  00000+0  66717-3 0  9992
2 59809  97.5994 274.0724 0013320 193.0208 167.0678 15.08057677  3132
2024-095A               
1 59810U 24095A   24162.21193699  .00010481  00000+0  61792-3 0  9999
2 59810  97.6012 237.4748 0010821 196.0043 164.0846 15.11713308  3035
2024-095B               
1 59811U 24095B   24162.21231862  .00004878  00000+0  29092-3 0  9995
2 59811  97.6019 237.4792 0010507 198.8532 161.2310 15.11582153  3033
2024-095C               
1 59812U 24095C   24162.20760107  .00015947  00000+0  92668-3 0  9992
2 59812  97.6003 237.4747 0010000 201.7330 158.3478 15.12136940  3037
2024-095D               
1 59813U 24095D   24162.20444910  .00015806  00000+0  91211-3 0  9991
2 59813  97.6006 237.4806 0009028 200.4076 159.6794 15.12397833  3033
STARLINK-31947          
1 59835U 24097A   24162.16667824 -.01755289  00000+0 -24394-1 0  9998
2 59835  43.0007 306.7552 0001460 281.3950 175.7410 15.59214202  4069
STARLINK-31929          
1 59836U 24097B   24162.16667824 -.01754219  00000+0 -24380-1 0  9996
2 59836  43.0008 306.7523 0001515 284.9282 173.6640 15.59210862  4023
STARLINK-31927          
1 59837U 24097C   24162.16667824 -.01757741  00000+0 -24436-1 0  9992
2 59837  43.0006 306.7483 0001477 279.2977 180.7510 15.59209965  4029
STARLINK-31855          
1 59838U 24097D   24162.16667824 -.01756021  00000+0 -24411-1 0  9996
2 59838  43.0006 306.7447 0001645 282.4429 179.0618 15.59206443  4012
STARLINK-31887          
1 59839U 24097E   24162.25001157 -.01722760  00000+0 -24208-1 0  9995
2 59839  43.0005 306.2464 0001348 274.4452 296.7958 15.58869382  4024
STARLINK-31925          
1 59840U 24097F   24162.16667824 -.01755558  00000+0 -24412-1 0  9994
2 59840  43.0007 306.7373 0001419 283.0899 181.3284 15.59199867  4017
STARLINK-31852          
1 59841U 24097G   24162.16667824 -.01758112  00000+0 -24453-1 0  9999
2 59841  43.0007 306.7339 0001412 280.4693 185.4050 15.59198634  4079
STARLINK-31906          
1 59842U 24097H   24162.16667824 -.01754031  00000+0 -24394-1 0  9990
2 59842  43.0007 306.7289 0001437 286.8041 180.5269 15.59193529  4063
STARLINK-31857          
1 59843U 24097J   24162.25001157 -.01722974  00000+0 -24221-1 0  9992
2 59843  43.0005 306.2318 0001439 274.0039 303.0594 15.58858147  4086
STARLINK-31851          
1 59844U 24097K   24162.16667824 -.01755621  00000+0 -24423-1 0  9991
2 59844  43.0007 306.7209 0001500 282.5805 187.6636 15.59188411  4069
STARLINK-31903          
1 59845U 24097L   24162.16667824 -.01758304  00000+0 -24467-1 0  9991
2 59845  43.0007 306.7183 0001394 280.0829 191.6173 15.59187079  4061
STARLINK-31922          
1 59846U 24097M   24162.16667824 -.01755948  00000+0 -24433-1 0  9996
2 59846  43.0007 306.7145 0001531 283.8346 189.3223 15.59182890  4020
STARLINK-31889          
1 59847U 24097N   24162.16667824 -.01754884  00000+0 -24420-1 0  9991
2 59847  43.0008 306.7102 0001496 285.1664 189.4469 15.59179412  4022
STARLINK-31859          
1 59848U 24097P   24162.16667824 -.01758080  00000+0 -24471-1 0  9990
2 59848  43.0007 306.7066 0001484 280.5778 195.4920 15.59178257  4017
STARLINK-31895          
1 59849U 24097Q   24162.16667824 -.01755798  00000+0 -24440-1 0  9990
2 59849  43.0008 306.7028 0001420 281.9270 195.5993 15.59173994  4013
STARLINK-31899          
1 59850U 24097R   24162.16667824 -.01755129  00000+0 -24433-1 0  9992
2 59850  43.0008 306.6986 0001378 282.9933 195.9895 15.59170734  4010
STARLINK-31896          
1 59851U 24097S   24162.16667824 -.01757233  00000+0 -24467-1 0  9998
2 59851  43.0008 306.6950 0001424 279.9294 200.5097 15.59169044  4075
STARLINK-31897          
1 59852U 24097T   24162.16667824 -.01755163  00000+0 -24439-1 0  9998
2 59852  43.0007 306.6913 0001367 283.1847 198.7109 15.59165022  4020
STARLINK-31892          
1 59853U 24097U   24162.16667824 -.01756428  00000+0 -24460-1 0  9998
2 59853  43.0007 306.6880 0001456 281.6552 201.6966 15.59162825  4022
STARLINK-31891          
1 59854U 24097V   24162.16667824 -.01757526  00000+0 -24479-1 0  9999
2 59854  43.0007 306.6839 0001476 281.7326 203.0754 15.59160642  4069
STARLINK-31882          
1 59855U 24097W   24162.16667824 -.01755506  00000+0 -24452-1 0  9997
2 59855  43.0007 306.6803 0001402 282.8972 203.3674 15.59156546  4072
STARLINK-31691          
1 59856U 24097X   24162.16667824 -.01756345  00000+0 -24467-1 0  9996
2 59856  43.0008 306.6763 0001435 283.8605 203.8601 15.59154189  4019
STARLINK-31569          
1 59857U 24097Y   24162.16667824 -.01758483  00000+0 -24502-1 0  9992
2 59857  43.0007 306.6726 0001432 278.6192 210.5578 15.59152478  4060
STARLINK-31654          
1 59858U 24098A   24162.16667824 -.01739738  00000+0 -18672-1 0  9997
2 59858  43.0009 316.0101 0001476 276.6917 342.6793 15.66247955  3907
STARLINK-31442          
1 59859U 24098B   24161.91667824 -.00848891  00000+0 -57901-2 0  9999
2 59859  43.0049 317.0826 0001416 287.4009 171.2729 15.76230845  3246
STARLINK-31651          
1 59860U 24098C   24162.16667824 -.01740650  00000+0 -18686-1 0  9990
2 59860  43.0006 316.0020 0001603 281.1698 341.1530 15.66242823  3212
STARLINK-31703          
1 59861U 24098D   24162.16667824 -.01738244  00000+0 -18661-1 0  9990
2 59861  43.0008 315.9987 0001490 274.8303 348.9700 15.66238174  3264
STARLINK-31584          
1 59862U 24098E   24162.16667824 -.01738084  00000+0 -18659-1 0  9990
2 59862  43.0006 315.9946 0001734 272.3373 352.9389 15.66235424  3105
